{
    "links": {
        "self": "http://www.neowsapp.com/rest/v1/neo/3760492?api_key=iIulBulltgU6a56xZRHN4H3l9WmuAYTsLGpBGhQ2"
    },
    "id": "3760492",
    "neo_reference_id": "3760492",
    "name": "(2016 TX10)",
    "designation": "2016 TX10",
    "nasa_jpl_url": "http://ssd.jpl.nasa.gov/sbdb.cgi?sstr=3760492",
    "absolute_magnitude_h": 25.7,
    "estimated_diameter": {
        "kilometers": {
            "estimated_diameter_min": 0.0192555078,
            "estimated_diameter_max": 0.0430566244
        },
        "meters": {
            "estimated_diameter_min": 19.2555078188,
            "estimated_diameter_max": 43.0566244241
        },
        "miles": {
            "estimated_diameter_min": 0.0119648141,
            "estimated_diameter_max": 0.0267541378
        },
        "feet": {
            "estimated_diameter_min": 63.1742402722,
            "estimated_diameter_max": 141.2618956756
        }
    },
    "is_potentially_hazardous_asteroid": false,
    "close_approach_data": [
        {
            "close_approach_date": "1948-09-28",
            "close_approach_date_full": "1948-Sep-28 04:13",
            "epoch_date_close_approach": -670880820000,
            "relative_velocity": {
                "kilometers_per_second": "18.6973724384",
                "kilometers_per_hour": "67310.540778227",
                "miles_per_hour": "41824.1524074489"
            },
            "miss_distance": {
                "astronomical": "0.1132867932",
                "lunar": "44.0685625548",
                "kilometers": "16947462.961850484",
                "miles": "10530665.1710613192"
            },
            "orbiting_body": "Earth"
        },
        {
            "close_approach_date": "2016-10-07",
            "close_approach_date_full": "2016-Oct-07 22:23",
            "epoch_date_close_approach": 1475878980000,
            "relative_velocity": {
                "kilometers_per_second": "15.0357975064",
                "kilometers_per_hour": "54128.8710231073",
                "miles_per_hour": "33633.575442108"
            },
            "miss_distance": {
                "astronomical": "0.013387917",
                "lunar": "5.207899713",
                "kilometers": "2002803.86693679",
                "miles": "1244484.615396102"
            },
            "orbiting_body": "Earth"
        },
        {
            "close_approach_date": "2104-07-16",
            "close_approach_date_full": "2104-Jul-16 15:10",
            "epoch_date_close_approach": 4245664200000,
            "relative_velocity": {
                "kilometers_per_second": "16.867159788",
                "kilometers_per_hour": "60721.7752368259",
                "miles_per_hour": "37730.1497297933"
            },
            "miss_distance": {
                "astronomical": "0.0596293225",
                "lunar": "23.1958064525",
                "kilometers": "8920419.635543075",
                "miles": "5542891.734221435"
            },
            "orbiting_body": "Mars"
        },
        {
            "close_approach_date": "2106-12-24",
            "close_approach_date_full": "2106-Dec-24 08:21",
            "epoch_date_close_approach": 4322622060000,
            "relative_velocity": {
                "kilometers_per_second": "12.8664806305",
                "kilometers_per_hour": "46319.3302699199",
                "miles_per_hour": "28781.0305224399"
            },
            "miss_distance": {
                "astronomical": "0.2286283558",
                "lunar": "88.9364304062",
                "kilometers": "34202315.049282146",
                "miles": "21252333.0878437748"
            },
            "orbiting_body": "Earth"
        }
    ],
    "orbital_data": {
        "orbit_id": "4",
        "orbit_determination_date": "2019-12-04 07:15:43",
        "first_observation_date": "2016-10-05",
        "last_observation_date": "2016-10-08",
        "data_arc_in_days": 3,
        "observations_used": 41,
        "orbit_uncertainty": "8",
        "minimum_orbit_intersection": ".010552",
        "jupiter_tisserand_invariant": "3.636",
        "epoch_osculation": "2457667.5",
        "eccentricity": ".6093459134386655",
        "semi_major_axis": "1.950279289003895",
        "inclination": "4.715172665413261",
        "ascending_node_longitude": "6.931817846238945",
        "orbital_period": "994.8180122969318",
        "perihelion_distance": ".7618845741853054",
        "perihelion_argument": "75.61255580580936",
        "aphelion_distance": "3.138674003822484",
        "perihelion_time": "2457713.405082739252",
        "mean_anomaly": "343.3880874875051",
        "mean_motion": ".3618752330074897",
        "equinox": "J2000",
        "orbit_class": {
            "orbit_class_type": "APO",
            "orbit_class_description": "Near-Earth asteroid orbits which cross the Earth’s orbit similar to that of 1862 Apollo",
            "orbit_class_range": "a (semi-major axis) > 1.0 AU; q (perihelion) < 1.017 AU"
        }
    },
    "is_sentry_object": false
}